$$SOE
2460154.500000000, A.D. 2023-Jul-29 00:00:00.0000, 2.850757162355314E+08, -1.417911406850920E+07, -5.772766707039171E+06,
2460161.500000000, A.D. 2023-Aug-05 00:00:00.0000, 2.872485659833888E+08, -2.761464650081461E+05, -5.970502684831767E+06,
2460168.500000000, A.D. 2023-Aug-12 00:00:00.0000, 2.888336300942516E+08, 1.362757238416526E+07, -6.156022772223064E+06,
2460175.500000000, A.D. 2023-Aug-19 00:00:00.0000, 2.898392871668214E+08, 2.750414152447457E+07, -6.329194967697334E+06,
2460182.500000000, A.D. 2023-Aug-26 00:00:00.0000, 2.902753484674603E+08, 4.132684716219940E+07, -6.489930107704176E+06,
2460189.500000000, A.D. 2023-Sep-02 00:00:00.0000, 2.901529103375583E+08, 5.507022611207910E+07, -6.638179490640033E+06,
2460196.500000000, A.D. 2023-Sep-09 00:00:00.0000, 2.894842083030948E+08, 6.871011175999466E+07, -6.773932356163416E+06,
2460203.500000000, A.D. 2023-Sep-16 00:00:00.0000, 2.882824749343840E+08, 8.222366378301433E+07, -6.897213294210691E+06,
2460210.500000000, A.D. 2023-Sep-23 00:00:00.0000, 2.865618034182127E+08, 9.558938335222083E+07, -7.008079648288112E+06,
2460217.500000000, A.D. 2023-Sep-30 00:00:00.0000, 2.843370177176123E+08, 1.087871165405687E+08, -7.106618827716835E+06,
2460224.500000000, A.D. 2023-Oct-07 00:00:00.0000, 2.816235479012777E+08, 1.217980469807951E+08, -7.192945391795896E+06,
2460231.500000000, A.D. 2023-Oct-14 00:00:00.0000, 2.784373123817239E+08, 1.346046760303871E+08, -7.267198301581688E+06,
2460238.500000000, A.D. 2023-Oct-21 00:00:00.0000, 2.747946107393643E+08, 1.471907935480060E+08, -7.329538529785611E+06,
2460245.500000000, A.D. 2023-Oct-28 00:00:00.0000, 2.707120259317341E+08, 1.595414429651765E+08, -7.380146732953928E+06,
2460252.500000000, A.D. 2023-Nov-04 00:00:00.0000, 2.662063346779797E+08, 1.716428812130139E+08, -7.419220949286379E+06,
2460259.500000000, A.D. 2023-Nov-11 00:00:00.0000, 2.612944260848562E+08, 1.834825341287127E+08, -7.446974398791797E+06,
2460266.500000000, A.D. 2023-Nov-18 00:00:00.0000, 2.559932285037754E+08, 1.950489483880018E+08, -7.463633419054575E+06,
2460273.500000000, A.D. 2023-Nov-25 00:00:00.0000, 2.503196443709521E+08, 2.063317409758417E+08, -7.469435546042234E+06,
2460280.500000000, A.D. 2023-Dec-02 00:00:00.0000, 2.442904926683536E+08, 2.173215470515618E+08, -7.464627745025322E+06,
2460287.500000000, A.D. 2023-Dec-09 00:00:00.0000, 2.379224586412795E+08, 2.280099668992352E+08, -7.449464802522629E+06,
2460294.500000000, A.D. 2023-Dec-16 00:00:00.0000, 2.312320505845188E+08, 2.383895126161355E+08, -7.424207901603386E+06,
2460301.500000000, A.D. 2023-Dec-23 00:00:00.0000, 2.242355635529568E+08, 2.484535557638632E+08, -7.389123352244571E+06,
2460308.500000000, A.D. 2023-Dec-30 00:00:00.0000, 2.169490481525182E+08, 2.581962774691317E+08, -7.344481262741804E+06,
2460315.500000000, A.D. 2024-Jan-06 00:00:00.0000, 2.093882821328667E+08, 2.676126189752752E+08, -7.290554174980745E+06,
2460322.500000000, A.D. 2024-Jan-13 00:00:00.0000, 2.015687474763139E+08, 2.766982311359084E+08, -7.227616095395744E+06,
2460329.500000000, A.D. 2024-Jan-20 00:00:00.0000, 1.935056137485496E+08, 2.854494261552525E+08, -7.155941775764167E+06,
2460336.500000000, A.D. 2024-Jan-27 00:00:00.0000, 1.852137252380247E+08, 2.938631323872459E+08, -7.075805997228324E+06,
2460343.500000000, A.D. 2024-Feb-03 00:00:00.0000, 1.767075910383519E+08, 3.019368513600494E+08, -6.987482888344452E+06,
2460350.500000000, A.D. 2024-Feb-10 00:00:00.0000, 1.680013779636484E+08, 3.096686168087223E+08, -6.891245319281667E+06,
2460357.500000000, A.D. 2024-Feb-17 00:00:00.0000, 1.591089060769250E+08, 3.170569557620059E+08, -6.787364377382502E+06,
2460364.500000000, A.D. 2024-Feb-24 00:00:00.0000, 1.500436465373451E+08, 3.241008517062876E+08, -6.676108919551283E+06,
2460371.500000000, A.D. 2024-Mar-02 00:00:00.0000, 1.408187214935765E+08, 3.307997097782994E+08, -6.557745200461701E+06,
2460378.500000000, A.D. 2024-Mar-09 00:00:00.0000, 1.314469058869723E+08, 3.371533238885778E+08, -6.432536588393196E+06,
2460385.500000000, A.D. 2024-Mar-16 00:00:00.0000, 1.219406313110957E+08, 3.431618459236735E+08, -6.300743383170560E+06,
2460392.500000000, A.D. 2024-Mar-23 00:00:00.0000, 1.123119916020603E+08, 3.488257580757292E+08, -6.162622631126568E+06,
2460399.500000000, A.D. 2024-Mar-30 00:00:00.0000, 1.025727477199612E+08, 3.541458481969904E+08, -6.018427729037374E+06,
2460406.500000000, A.D. 2024-Apr-06 00:00:00.0000, 9.273433199271457E+07, 3.591231847287101E+08, -5.868408110252410E+06,
2460413.500000000, A.D. 2024-Apr-13 00:00:00.0000, 8.280785511228967E+07, 3.637590919664475E+08, -5.712809266082421E+06,
2460420.500000000, A.D. 2024-Apr-20 00:00:00.0000, 7.280411479489450E+07, 3.680551282568004E+08, -5.551872793246612E+06,
2460427.500000000, A.D. 2024-Apr-27 00:00:00.0000, 6.273360446406360E+07, 3.720130664756486E+08, -5.385836370525554E+06,
2460434.500000000, A.D. 2024-May-04 00:00:00.0000, 5.260652193410124E+07, 3.756348759987088E+08, -5.214933726701528E+06,
2460441.500000000, A.D. 2024-May-11 00:00:00.0000, 4.243277823629190E+07, 3.789227059795970E+08, -5.039394626921952E+06,
2460448.500000000, A.D. 2024-May-18 00:00:00.0000, 3.222200658681355E+07, 3.818788698763173E+08, -4.859444880506396E+06,
2460455.500000000, A.D. 2024-May-25 00:00:00.0000, 2.198357144958745E+07, 3.845058311409560E+08, -4.675306370581478E+06,
2460462.500000000, A.D. 2024-Jun-01 00:00:00.0000, 1.172657769306823E+07, 3.868061899396331E+08, -4.487197113498390E+06,
2460469.500000000, A.D. 2024-Jun-08 00:00:00.0000, 1.459880036063288E+06, 3.887826708063511E+08, -4.295331370472878E+06,
2460476.500000000, A.D. 2024-Jun-15 00:00:00.0000, -8.807906861272078E+06, 3.904381117044896E+08, -4.099919801663011E+06,
2460483.500000000, A.D. 2024-Jun-22 00:00:00.0000, -1.906839870283562E+07, 3.917754556024576E+08, -3.901169472817928E+06,
2460490.500000000, A.D. 2024-Jun-29 00:00:00.0000, -2.931343441065309E+07, 3.927977426730026E+08, -3.699283666886628E+06,
2460497.500000000, A.D. 2024-Jul-06 00:00:00.0000, -3.953506891526425E+07, 3.935081005783252E+08, -3.494461942631841E+06,
2460504.500000000, A.D. 2024-Jul-13 00:00:00.0000, -4.972556396233348E+07, 3.939097356159734E+08, -3.286900386846423E+06,
2460511.500000000, A.D. 2024-Jul-20 00:00:00.0000, -5.987737893773843E+07, 3.940059258305575E+08, -3.076791783804715E+06,
2460518.500000000, A.D. 2024-Jul-27 00:00:00.0000, -6.998316237824640E+07, 3.938000150852243E+08, -2.864325719633579E+06,
2460525.500000000, A.D. 2024-Aug-03 00:00:00.0000, -8.003574390375994E+07, 3.932954076724843E+08, -2.649688676718652E+06,
2460532.500000000, A.D. 2024-Aug-10 00:00:00.0000, -9.002812641224551E+07, 3.924955634167464E+08, -2.433064133270383E+06,
2460539.500000000, A.D. 2024-Aug-17 00:00:00.0000, -9.995347849533290E+07, 3.914039932496953E+08, -2.214632670239985E+06,
2460546.500000000, A.D. 2024-Aug-24 00:00:00.0000, -1.098051270506540E+08, 3.900242551986275E+08, -1.994572089657187E+06,
2460553.500000000, A.D. 2024-Aug-31 00:00:00.0000, -1.195765499778174E+08, 3.883599506916027E+08, -1.773057559783429E+06,
2460560.500000000, A.D. 2024-Sep-07 00:00:00.0000, -1.292613685939324E+08, 3.864147212739485E+08, -1.550261810095429E+06,
2460567.500000000, A.D. 2024-Sep-14 00:00:00.0000, -1.388533396843368E+08, 3.841922467036173E+08, -1.326355302455515E+06,
2460574.500000000, A.D. 2024-Sep-21 00:00:00.0000, -1.483463492165781E+08, 3.816962448139289E+08, -1.101506158856481E+06,
2460581.500000000, A.D. 2024-Sep-28 00:00:00.0000, -1.577344082002262E+08, 3.789304698911677E+08, -8.758800647979975E+05,
2460588.500000000, A.D. 2024-Oct-05 00:00:00.0000, -1.670116470201485E+08, 3.758987095414465E+08, -6.496404841598272E+05,
2460595.500000000, A.D. 2024-Oct-12 00:00:00.0000, -1.761723086044819E+08, 3.726047830081884E+08, -4.229489089373052E+05,
2460602.500000000, A.D. 2024-Oct-19 00:00:00.0000, -1.852107421745404E+08, 3.690525406541753E+08, -1.959650056417882E+05,
2460609.500000000, A.D. 2024-Oct-26 00:00:00.0000, -1.941213976040089E+08, 3.652458637896671E+08, 3.115327921549976E+04,
2460616.500000000, A.D. 2024-Nov-02 00:00:00.0000, -2.028988201260156E+08, 3.611886646822930E+08, 2.582496190119088E+05,
2460623.500000000, A.D. 2024-Nov-09 00:00:00.0000, -2.115376452876905E+08, 3.568848867556484E+08, 4.851692052400708E+05,
2460630.500000000, A.D. 2024-Nov-16 00:00:00.0000, -2.200325941224836E+08, 3.523385049647691E+08, 7.117586418310404E+05,
2460637.500000000, A.D. 2024-Nov-23 00:00:00.0000, -2.283784684895079E+08, 3.475535262878172E+08, 9.378658273073286E+05,
2460644.500000000, A.D. 2024-Nov-30 00:00:00.0000, -2.365701463679397E+08, 3.425339902816413E+08, 1.163339802310243E+06,
2460651.500000000, A.D. 2024-Dec-07 00:00:00.0000, -2.446025766838611E+08, 3.372839701130888E+08, 1.388030558569208E+06,
2460658.500000000, A.D. 2024-Dec-14 00:00:00.0000, -2.524707743563358E+08, 3.318075752830262E+08, 1.611788972601846E+06,
2460665.500000000, A.D. 2024-Dec-21 00:00:00.0000, -2.601698178797359E+08, 3.261089547984470E+08, 1.834466975344330E+06,
2460672.500000000, A.D. 2024-Dec-28 00:00:00.0000, -2.676948474648328E+08, 3.201922978204591E+08, 2.055917534534529E+06,
2460679.500000000, A.D. 2025-Jan-04 00:00:00.0000, -2.750410611382889E+08, 3.140618341560251E+08, 2.275994406449780E+06,
2460686.500000000, A.D. 2025-Jan-11 00:00:00.0000, -2.822037106237072E+08, 3.077218362502681E+08, 2.494551959835425E+06,
2460693.500000000, A.D. 2025-Jan-18 00:00:00.0000, -2.891780979209684E+08, 3.011766217608937E+08, 2.711445081066296E+06,
2460700.500000000, A.D. 2025-Jan-25 00:00:00.0000, -2.959595723385597E+08, 2.944305562390705E+08, 2.926529099704385E+06,
2460707.500000000, A.D. 2025-Feb-01 00:00:00.0000, -3.025435277883537E+08, 2.874880558852841E+08, 3.139659714914113E+06,
2460714.500000000, A.D. 2025-Feb-08 00:00:00.0000, -3.089254002840617E+08, 2.803535903991494E+08, 3.350692919198111E+06,
2460721.500000000, A.D. 2025-Feb-15 00:00:00.0000, -3.151006656144947E+08, 2.730316859029789E+08, 3.559484915313855E+06,
$$EOE